{"fetched_at":"2026-07-13T18:16:31.793Z","source":"https://celestrak.org/NORAD/elements/gp.php?GROUP=oneweb&FORMAT=JSON","constellation":"oneweb","records":[{"OBJECT_NAME":"ONEWEB-0233","OBJECT_ID":"2021-045AE","EPOCH":"2026-07-13T04:22:52.520448","CLASSIFICATION_TYPE":"U","MEAN_MOTION":13.15550671,"ECCENTRICITY":0.00022277,"INCLINATION":87.8985,"RA_OF_ASC_NODE":254.0549,"ARG_OF_PERICENTER":105.2914,"MEAN_ANOMALY":254.8462,"EPHEMERIS_TYPE":0,"NORAD_CAT_ID":48795,"ELEMENT_SET_NO":999,"REV_AT_EPOCH":24771,"BSTAR":-0.00011493965,"MEAN_MOTION_DOT":-3e-7,"MEAN_MOTION_DDOT":0},{"OBJECT_NAME":"ONEWEB-0190","OBJECT_ID":"2021-045AF","EPOCH":"2026-07-12T17:07:41.284128","CLASSIFICATION_TYPE":"U","MEAN_MOTION":13.15548656,"ECCENTRICITY":0.00021745,"INCLINATION":87.8992,"RA_OF_ASC_NODE":254.1124,"ARG_OF_PERICENTER":117.2161,"MEAN_ANOMALY":242.9191,"EPHEMERIS_TYPE":0,"NORAD_CAT_ID":48796,"ELEMENT_SET_NO":999,"REV_AT_EPOCH":24772,"BSTAR":0.00013811769,"MEAN_MOTION_DOT":6.5e-7,"MEAN_MOTION_DDOT":0},{"OBJECT_NAME":"ONEWEB-0236","OBJECT_ID":"2021-045AG","EPOCH":"2026-07-12T15:43:16.114368","CLASSIFICATION_TYPE":"U","MEAN_MOTION":13.15548119,"ECCENTRICITY":0.00021566,"INCLINATION":87.8984,"RA_OF_ASC_NODE":254.1319,"ARG_OF_PERICENTER":95.2359,"MEAN_ANOMALY":264.9017,"EPHEMERIS_TYPE":0,"NORAD_CAT_ID":48797,"ELEMENT_SET_NO":999,"REV_AT_EPOCH":24760,"BSTAR":-0.0002810328,"MEAN_MOTION_DOT":-9.3e-7,"MEAN_MOTION_DDOT":0},{"OBJECT_NAME":"ONEWEB-0248","OBJECT_ID":"2021-045AH","EPOCH":"2026-07-12T16:01:30.820512","CLASSIFICATION_TYPE":"U","MEAN_MOTION":13.15548836,"ECCENTRICITY":0.00024045,"INCLINATION":87.8996,"RA_OF_ASC_NODE":254.1153,"ARG_OF_PERICENTER":108.5777,"MEAN_ANOMALY":251.5614,"EPHEMERIS_TYPE":0,"NORAD_CAT_ID":48798,"ELEMENT_SET_NO":999,"REV_AT_EPOCH":24776,"BSTAR":-0.00015477156,"MEAN_MOTION_DOT":-4.5e-7,"MEAN_MOTION_DDOT":0},{"OBJECT_NAME":"ONEWEB-0225","OBJECT_ID":"2021-045AJ","EPOCH":"2026-07-13T03:30:36.216864","CLASSIFICATION_TYPE":"U","MEAN_MOTION":13.15548124,"ECCENTRICITY":0.00021937,"INCLINATION":87.8992,"RA_OF_ASC_NODE":254.027,"ARG_OF_PERICENTER":113.2136,"MEAN_ANOMALY":246.9226,"EPHEMERIS_TYPE":0,"NORAD_CAT_ID":48799,"ELEMENT_SET_NO":999,"REV_AT_EPOCH":24783,"BSTAR":0.00036726732,"MEAN_MOTION_DOT":0.00000151,"MEAN_MOTION_DDOT":0},{"OBJECT_NAME":"ONEWEB-0215","OBJECT_ID":"2021-045AK","EPOCH":"2026-07-12T15:50:06.189504","CLASSIFICATION_TYPE":"U","MEAN_MOTION":13.15549106,"ECCENTRICITY":0.00023979,"INCLINATION":87.9,"RA_OF_ASC_NODE":254.1074,"ARG_OF_PERICENTER":111.9675,"MEAN_ANOMALY":248.171,"EPHEMERIS_TYPE":0,"NORAD_CAT_ID":48800,"ELEMENT_SET_NO":999,"REV_AT_EPOCH":24764,"BSTAR":-0.00031681021,"MEAN_MOTION_DOT":-0.00000106,"MEAN_MOTION_DDOT":0},{"OBJECT_NAME":"ONEWEB-0216","OBJECT_ID":"2021-045AL","EPOCH":"2026-07-12T16:03:48.119616","CLASSIFICATION_TYPE":"U","MEAN_MOTION":13.15547853,"ECCENTRICITY":0.00019535,"INCLINATION":87.8984,"RA_OF_ASC_NODE":254.1212,"ARG_OF_PERICENTER":98.0014,"MEAN_ANOMALY":262.1338,"EPHEMERIS_TYPE":0,"NORAD_CAT_ID":48801,"ELEMENT_SET_NO":999,"REV_AT_EPOCH":24765,"BSTAR":-0.0001363235,"MEAN_MOTION_DOT":-3.8e-7,"MEAN_MOTION_DDOT":0},{"OBJECT_NAME":"ONEWEB-0239","OBJECT_ID":"2021-045AM","EPOCH":"2026-07-12T16:10:38.950752","CLASSIFICATION_TYPE":"U","MEAN_MOTION":13.15548366,"ECCENTRICITY":0.00025205,"INCLINATION":87.8979,"RA_OF_ASC_NODE":254.1228,"ARG_OF_PERICENTER":114.2785,"MEAN_ANOMALY":245.8609,"EPHEMERIS_TYPE":0,"NORAD_CAT_ID":48802,"ELEMENT_SET_NO":999,"REV_AT_EPOCH":24769,"BSTAR":-0.00021314403,"MEAN_MOTION_DOT":-6.7e-7,"MEAN_MOTION_DDOT":0},{"OBJECT_NAME":"ONEWEB-0249","OBJECT_ID":"2021-060A","EPOCH":"2026-07-12T23:13:40.652832","CLASSIFICATION_TYPE":"U","MEAN_MOTION":13.16592294,"ECCENTRICITY":0.00021683,"INCLINATION":87.9078,"RA_OF_ASC_NODE":223.6571,"ARG_OF_PERICENTER":96.4459,"MEAN_ANOMALY":263.6919,"EPHEMERIS_TYPE":0,"NORAD_CAT_ID":48967,"ELEMENT_SET_NO":999,"REV_AT_EPOCH":24300,"BSTAR":0.000069455293,"MEAN_MOTION_DOT":3.9e-7,"MEAN_MOTION_DDOT":0},{"OBJECT_NAME":"ONEWEB-0250","OBJECT_ID":"2021-060B","EPOCH":"2026-07-12T23:11:50.821152","CLASSIFICATION_TYPE":"U","MEAN_MOTION":13.25835139,"ECCENTRICITY":0.00030889,"INCLINATION":87.908,"RA_OF_ASC_NODE":221.3297,"ARG_OF_PERICENTER":88.1386,"MEAN_ANOMALY":272.0104,"EPHEMERIS_TYPE":0,"NORAD_CAT_ID":48968,"ELEMENT_SET_NO":999,"REV_AT_EPOCH":24363,"BSTAR":0.00014332458,"MEAN_MOTION_DOT":7.6e-7,"MEAN_MOTION_DDOT":0},{"OBJECT_NAME":"ONEWEB-0252","OBJECT_ID":"2021-060D","EPOCH":"2026-07-12T13:01:33.470400","CLASSIFICATION_TYPE":"U","MEAN_MOTION":13.16595354,"ECCENTRICITY":0.0001822,"INCLINATION":87.908,"RA_OF_ASC_NODE":223.7339,"ARG_OF_PERICENTER":96.838,"MEAN_ANOMALY":263.2958,"EPHEMERIS_TYPE":0,"NORAD_CAT_ID":48970,"ELEMENT_SET_NO":999,"REV_AT_EPOCH":24299,"BSTAR":0.00027121,"MEAN_MOTION_DOT":0.00000117,"MEAN_MOTION_DDOT":0},{"OBJECT_NAME":"ONEWEB-0253","OBJECT_ID":"2021-060E","EPOCH":"2026-07-12T12:45:36.066816","CLASSIFICATION_TYPE":"U","MEAN_MOTION":13.16594919,"ECCENTRICITY":0.00021711,"INCLINATION":87.9079,"RA_OF_ASC_NODE":223.7415,"ARG_OF_PERICENTER":95.1739,"MEAN_ANOMALY":264.964,"EPHEMERIS_TYPE":0,"NORAD_CAT_ID":48971,"ELEMENT_SET_NO":999,"REV_AT_EPOCH":24292,"BSTAR":0.00038478852,"MEAN_MOTION_DOT":0.0000016,"MEAN_MOTION_DDOT":0},{"OBJECT_NAME":"ONEWEB-0254","OBJECT_ID":"2021-060F","EPOCH":"2026-07-12T12:59:17.177856","CLASSIFICATION_TYPE":"U","MEAN_MOTION":13.1659369,"ECCENTRICITY":0.0002263,"INCLINATION":87.9083,"RA_OF_ASC_NODE":223.7375,"ARG_OF_PERICENTER":98.0458,"MEAN_ANOMALY":262.093,"EPHEMERIS_TYPE":0,"NORAD_CAT_ID":48972,"ELEMENT_SET_NO":999,"REV_AT_EPOCH":24292,"BSTAR":0.00025752,"MEAN_MOTION_DOT":0.00000111,"MEAN_MOTION_DDOT":0},{"OBJECT_NAME":"ONEWEB-0255","OBJECT_ID":"2021-060G","EPOCH":"2026-07-12T13:54:00.109152","CLASSIFICATION_TYPE":"U","MEAN_MOTION":13.16593838,"ECCENTRICITY":0.0002156,"INCLINATION":87.9081,"RA_OF_ASC_NODE":223.7362,"ARG_OF_PERICENTER":99.0796,"MEAN_ANOMALY":261.0578,"EPHEMERIS_TYPE":0,"NORAD_CAT_ID":48973,"ELEMENT_SET_NO":999,"REV_AT_EPOCH":24300,"BSTAR":-0.00010842,"MEAN_MOTION_DOT":-2.9e-7,"MEAN_MOTION_DDOT":0},{"OBJECT_NAME":"ONEWEB-0256","OBJECT_ID":"2021-060H","EPOCH":"2026-07-12T12:42:09.385056","CLASSIFICATION_TYPE":"U","MEAN_MOTION":13.16592538,"ECCENTRICITY":0.00018555,"INCLINATION":87.9073,"RA_OF_ASC_NODE":223.7496,"ARG_OF_PERICENTER":92.1773,"MEAN_ANOMALY":267.9571,"EPHEMERIS_TYPE":0,"NORAD_CAT_ID":48974,"ELEMENT_SET_NO":999,"REV_AT_EPOCH":24296,"BSTAR":0.0002654015,"MEAN_MOTION_DOT":0.00000114,"MEAN_MOTION_DDOT":0},{"OBJECT_NAME":"ONEWEB-0257","OBJECT_ID":"2021-060J","EPOCH":"2026-07-12T13:28:55.236288","CLASSIFICATION_TYPE":"U","MEAN_MOTION":13.1659416,"ECCENTRICITY":0.0002042,"INCLINATION":87.9084,"RA_OF_ASC_NODE":223.7308,"ARG_OF_PERICENTER":99.2915,"MEAN_ANOMALY":260.8447,"EPHEMERIS_TYPE":0,"NORAD_CAT_ID":48975,"ELEMENT_SET_NO":999,"REV_AT_EPOCH":24292,"BSTAR":0.00013136,"MEAN_MOTION_DOT":6.3e-7,"MEAN_MOTION_DDOT":0}]}
