ONEWEB-0233             
1 48795U 21045AE  26194.18255232 -.00000030  00000+0 -11494-3 0  9991
2 48795  87.8985 254.0549 0002227 105.2914 254.8462 13.15550671247710
ONEWEB-0190             
1 48796U 21045AF  26193.71367227  .00000065  00000+0  13812-3 0  9990
2 48796  87.8992 254.1124 0002174 117.2161 242.9191 13.15548656247725
ONEWEB-0236             
1 48797U 21045AG  26193.65504762 -.00000093  00000+0 -28103-3 0  9993
2 48797  87.8984 254.1319 0002156  95.2359 264.9017 13.15548119247609
ONEWEB-0248             
1 48798U 21045AH  26193.66771783 -.00000045  00000+0 -15477-3 0  9991
2 48798  87.8996 254.1153 0002404 108.5777 251.5614 13.15548836247765
ONEWEB-0225             
1 48799U 21045AJ  26194.14625251  .00000151  00000+0  36727-3 0  9991
2 48799  87.8992 254.0270 0002193 113.2136 246.9226 13.15548124247833
ONEWEB-0215             
1 48800U 21045AK  26193.65979386 -.00000106  00000+0 -31681-3 0  9996
2 48800  87.9000 254.1074 0002397 111.9675 248.1710 13.15549106247641
ONEWEB-0216             
1 48801U 21045AL  26193.66930694 -.00000038  00000+0 -13632-3 0  9997
2 48801  87.8984 254.1212 0001953  98.0014 262.1338 13.15547853247655
ONEWEB-0239             
1 48802U 21045AM  26193.67406193 -.00000067  00000+0 -21314-3 0  9999
2 48802  87.8979 254.1228 0002520 114.2785 245.8609 13.15548366247697
ONEWEB-0249             
1 48967U 21060A   26193.96783163  .00000039  00000+0  69455-4 0  9991
2 48967  87.9078 223.6571 0002168  96.4459 263.6919 13.16592294243002
ONEWEB-0250             
1 48968U 21060B   26193.96656043  .00000076  00000+0  14332-3 0  9992
2 48968  87.9080 221.3297 0003088  88.1386 272.0104 13.25835139243632
ONEWEB-0252             
1 48970U 21060D   26193.54274850  .00000117  00000+0  27121-3 0  9997
2 48970  87.9080 223.7339 0001822  96.8380 263.2958 13.16595354242991
ONEWEB-0253             
1 48971U 21060E   26193.53166744  .00000160  00000+0  38479-3 0  9995
2 48971  87.9079 223.7415 0002171  95.1739 264.9640 13.16594919242928
ONEWEB-0254             
1 48972U 21060F   26193.54117104  .00000111  00000+0  25752-3 0  9999
2 48972  87.9083 223.7375 0002263  98.0458 262.0930 13.16593690242927
ONEWEB-0255             
1 48973U 21060G   26193.57916793 -.00000029  00000+0 -10842-3 0  9998
2 48973  87.9081 223.7362 0002156  99.0796 261.0578 13.16593838243000
ONEWEB-0256             
1 48974U 21060H   26193.52927529  .00000114  00000+0  26540-3 0  9998
2 48974  87.9073 223.7496 0001855  92.1773 267.9571 13.16592538242962
ONEWEB-0257             
1 48975U 21060J   26193.56175042  .00000063  00000+0  13136-3 0  9998
2 48975  87.9084 223.7308 0002042  99.2915 260.8447 13.16594160242925
